[{"OBJECT_NAME":"STARLINK-34668","OBJECT_ID":"2025-150AA","EPOCH":"2026-03-09T12:29:16.699488","MEAN_MOTION":14.98347824,"ECCENTRICITY":0.000305,"INCLINATION":70.0026,"RA_OF_ASC_NODE":134.7911,"ARG_OF_PERICENTER":263.5528,"MEAN_ANOMALY":96.5283,"EPHEMERIS_TYPE":0,"CLASSIFICATION_TYPE":"U","NORAD_CAT_ID":64814,"ELEMENT_SET_NO":999,"REV_AT_EPOCH":3649,"BSTAR":0.00040691444,"MEAN_MOTION_DOT":4.768e-5,"MEAN_MOTION_DDOT":0},{"OBJECT_NAME":"COSMOS 397 DEB","OBJECT_ID":"1971-015N","EPOCH":"2026-03-09T21:59:22.745472","MEAN_MOTION":14.31890042,"ECCENTRICITY":0.0375916,"INCLINATION":65.6812,"RA_OF_ASC_NODE":51.6354,"ARG_OF_PERICENTER":68.3492,"MEAN_ANOMALY":295.7191,"EPHEMERIS_TYPE":0,"CLASSIFICATION_TYPE":"U","NORAD_CAT_ID":5019,"ELEMENT_SET_NO":999,"REV_AT_EPOCH":69800,"BSTAR":0.0019195844,"MEAN_MOTION_DOT":0.0001123,"MEAN_MOTION_DDOT":0}]
